<?xml version="1.0" encoding="UTF-8"?>
<gpx version="1.1" creator="Codex" xmlns="http://www.topografix.com/GPX/1/1">
  <metadata>
    <name>Amap-style Hefei Walk (Road + Drift)</name>
    <desc>Approximate road-following Amap-style walking route from Innovation Industry Park Building A north gate to Shanshuijian Garden north gate, with light GPS drift and preserved 6.0-6.2 km/h overall pace.</desc>
    <time>2026-06-11T08:39:20Z</time>
  </metadata>
  <trk>
    <name>Amap-style Hefei Walk (Road + Drift)</name>
    <trkseg>
      <trkpt lat="31.839920" lon="117.136180">
        <ele>36.0</ele>
        <time>2026-06-11T08:39:20Z</time>
      </trkpt>
      <trkpt lat="31.839946" lon="117.136271">
        <ele>36.0</ele>
        <time>2026-06-11T08:39:25.480428Z</time>
      </trkpt>
      <trkpt lat="31.839996" lon="117.136353">
        <ele>36.0</ele>
        <time>2026-06-11T08:39:30.785636Z</time>
      </trkpt>
      <trkpt lat="31.840020" lon="117.136420">
        <ele>36.0</ele>
        <time>2026-06-11T08:39:34.783687Z</time>
      </trkpt>
      <trkpt lat="31.840036" lon="117.136516">
        <ele>36.0</ele>
        <time>2026-06-11T08:39:40.233271Z</time>
      </trkpt>
      <trkpt lat="31.840074" lon="117.136604">
        <ele>36.0</ele>
        <time>2026-06-11T08:39:45.720698Z</time>
      </trkpt>
      <trkpt lat="31.840080" lon="117.136701">
        <ele>36.0</ele>
        <time>2026-06-11T08:39:51.065673Z</time>
      </trkpt>
      <trkpt lat="31.840104" lon="117.136795">
        <ele>36.0</ele>
        <time>2026-06-11T08:39:56.312199Z</time>
      </trkpt>
      <trkpt lat="31.840120" lon="117.136820">
        <ele>36.0</ele>
        <time>2026-06-11T08:39:57.855808Z</time>
      </trkpt>
      <trkpt lat="31.840126" lon="117.136917">
        <ele>36.0</ele>
        <time>2026-06-11T08:40:03.312185Z</time>
      </trkpt>
      <trkpt lat="31.840153" lon="117.137011">
        <ele>36.0</ele>
        <time>2026-06-11T08:40:08.717743Z</time>
      </trkpt>
      <trkpt lat="31.840163" lon="117.137106">
        <ele>36.0</ele>
        <time>2026-06-11T08:40:14.050788Z</time>
      </trkpt>
      <trkpt lat="31.840172" lon="117.137207">
        <ele>36.0</ele>
        <time>2026-06-11T08:40:19.353052Z</time>
      </trkpt>
      <trkpt lat="31.840180" lon="117.137220">
        <ele>36.0</ele>
        <time>2026-06-11T08:40:20.319621Z</time>
      </trkpt>
      <trkpt lat="31.840194" lon="117.137315">
        <ele>36.0</ele>
        <time>2026-06-11T08:40:25.737941Z</time>
      </trkpt>
      <trkpt lat="31.840213" lon="117.137408">
        <ele>36.0</ele>
        <time>2026-06-11T08:40:31.042743Z</time>
      </trkpt>
      <trkpt lat="31.840226" lon="117.137504">
        <ele>36.0</ele>
        <time>2026-06-11T08:40:36.346584Z</time>
      </trkpt>
      <trkpt lat="31.840229" lon="117.137604">
        <ele>36.0</ele>
        <time>2026-06-11T08:40:41.618614Z</time>
      </trkpt>
      <trkpt lat="31.840240" lon="117.137620">
        <ele>36.0</ele>
        <time>2026-06-11T08:40:42.589179Z</time>
      </trkpt>
      <trkpt lat="31.840325" lon="117.137614">
        <ele>36.0</ele>
        <time>2026-06-11T08:40:47.897024Z</time>
      </trkpt>
      <trkpt lat="31.840406" lon="117.137619">
        <ele>36.0</ele>
        <time>2026-06-11T08:40:53.134502Z</time>
      </trkpt>
      <trkpt lat="31.840488" lon="117.137636">
        <ele>36.0</ele>
        <time>2026-06-11T08:40:58.413159Z</time>
      </trkpt>
      <trkpt lat="31.840570" lon="117.137630">
        <ele>36.0</ele>
        <time>2026-06-11T08:41:03.828187Z</time>
      </trkpt>
      <trkpt lat="31.840651" lon="117.137660">
        <ele>36.0</ele>
        <time>2026-06-11T08:41:09.201689Z</time>
      </trkpt>
      <trkpt lat="31.840733" lon="117.137663">
        <ele>36.0</ele>
        <time>2026-06-11T08:41:14.546117Z</time>
      </trkpt>
      <trkpt lat="31.840819" lon="117.137652">
        <ele>36.0</ele>
        <time>2026-06-11T08:41:19.886915Z</time>
      </trkpt>
      <trkpt lat="31.840820" lon="117.137660">
        <ele>36.0</ele>
        <time>2026-06-11T08:41:20.082285Z</time>
      </trkpt>
      <trkpt lat="31.840902" lon="117.137672">
        <ele>36.0</ele>
        <time>2026-06-11T08:41:25.511619Z</time>
      </trkpt>
      <trkpt lat="31.840987" lon="117.137668">
        <ele>36.0</ele>
        <time>2026-06-11T08:41:30.944308Z</time>
      </trkpt>
      <trkpt lat="31.841066" lon="117.137681">
        <ele>36.0</ele>
        <time>2026-06-11T08:41:36.267355Z</time>
      </trkpt>
      <trkpt lat="31.841149" lon="117.137680">
        <ele>36.0</ele>
        <time>2026-06-11T08:41:41.738695Z</time>
      </trkpt>
      <trkpt lat="31.841233" lon="117.137697">
        <ele>36.0</ele>
        <time>2026-06-11T08:41:47.005821Z</time>
      </trkpt>
      <trkpt lat="31.841317" lon="117.137690">
        <ele>36.0</ele>
        <time>2026-06-11T08:41:52.419799Z</time>
      </trkpt>
      <trkpt lat="31.841396" lon="117.137685">
        <ele>36.0</ele>
        <time>2026-06-11T08:41:57.659128Z</time>
      </trkpt>
      <trkpt lat="31.841477" lon="117.137706">
        <ele>36.0</ele>
        <time>2026-06-11T08:42:03.000001Z</time>
      </trkpt>
      <trkpt lat="31.841480" lon="117.137700">
        <ele>36.0</ele>
        <time>2026-06-11T08:42:03.019460Z</time>
      </trkpt>
      <trkpt lat="31.841563" lon="117.137716">
        <ele>36.0</ele>
        <time>2026-06-11T08:42:08.426030Z</time>
      </trkpt>
      <trkpt lat="31.841643" lon="117.137698">
        <ele>36.0</ele>
        <time>2026-06-11T08:42:13.867024Z</time>
      </trkpt>
      <trkpt lat="31.841728" lon="117.137703">
        <ele>36.0</ele>
        <time>2026-06-11T08:42:19.267641Z</time>
      </trkpt>
      <trkpt lat="31.841812" lon="117.137711">
        <ele>36.0</ele>
        <time>2026-06-11T08:42:24.671999Z</time>
      </trkpt>
      <trkpt lat="31.841893" lon="117.137711">
        <ele>36.0</ele>
        <time>2026-06-11T08:42:30.099206Z</time>
      </trkpt>
      <trkpt lat="31.841976" lon="117.137724">
        <ele>36.0</ele>
        <time>2026-06-11T08:42:35.595371Z</time>
      </trkpt>
      <trkpt lat="31.842056" lon="117.137739">
        <ele>36.0</ele>
        <time>2026-06-11T08:42:41.053218Z</time>
      </trkpt>
      <trkpt lat="31.842140" lon="117.137738">
        <ele>36.0</ele>
        <time>2026-06-11T08:42:46.494388Z</time>
      </trkpt>
      <trkpt lat="31.842180" lon="117.137740">
        <ele>36.0</ele>
        <time>2026-06-11T08:42:49.146790Z</time>
      </trkpt>
      <trkpt lat="31.842264" lon="117.137737">
        <ele>36.0</ele>
        <time>2026-06-11T08:42:54.572672Z</time>
      </trkpt>
      <trkpt lat="31.842346" lon="117.137737">
        <ele>36.0</ele>
        <time>2026-06-11T08:43:00.062594Z</time>
      </trkpt>
      <trkpt lat="31.842427" lon="117.137750">
        <ele>36.0</ele>
        <time>2026-06-11T08:43:05.398988Z</time>
      </trkpt>
      <trkpt lat="31.842512" lon="117.137758">
        <ele>36.0</ele>
        <time>2026-06-11T08:43:10.750487Z</time>
      </trkpt>
      <trkpt lat="31.842593" lon="117.137750">
        <ele>36.0</ele>
        <time>2026-06-11T08:43:16.154282Z</time>
      </trkpt>
      <trkpt lat="31.842672" lon="117.137778">
        <ele>36.0</ele>
        <time>2026-06-11T08:43:21.616201Z</time>
      </trkpt>
      <trkpt lat="31.842756" lon="117.137761">
        <ele>36.0</ele>
        <time>2026-06-11T08:43:26.948912Z</time>
      </trkpt>
      <trkpt lat="31.842842" lon="117.137765">
        <ele>36.0</ele>
        <time>2026-06-11T08:43:32.281729Z</time>
      </trkpt>
      <trkpt lat="31.842920" lon="117.137780">
        <ele>36.0</ele>
        <time>2026-06-11T08:43:37.417400Z</time>
      </trkpt>
      <trkpt lat="31.843003" lon="117.137772">
        <ele>36.0</ele>
        <time>2026-06-11T08:43:42.689866Z</time>
      </trkpt>
      <trkpt lat="31.843085" lon="117.137789">
        <ele>36.0</ele>
        <time>2026-06-11T08:43:48.011940Z</time>
      </trkpt>
      <trkpt lat="31.843170" lon="117.137791">
        <ele>36.0</ele>
        <time>2026-06-11T08:43:53.498422Z</time>
      </trkpt>
      <trkpt lat="31.843249" lon="117.137791">
        <ele>36.0</ele>
        <time>2026-06-11T08:43:58.837047Z</time>
      </trkpt>
      <trkpt lat="31.843331" lon="117.137790">
        <ele>36.0</ele>
        <time>2026-06-11T08:44:04.210646Z</time>
      </trkpt>
      <trkpt lat="31.843416" lon="117.137800">
        <ele>36.0</ele>
        <time>2026-06-11T08:44:09.650448Z</time>
      </trkpt>
      <trkpt lat="31.843498" lon="117.137804">
        <ele>36.0</ele>
        <time>2026-06-11T08:44:14.988914Z</time>
      </trkpt>
      <trkpt lat="31.843579" lon="117.137823">
        <ele>36.0</ele>
        <time>2026-06-11T08:44:20.273584Z</time>
      </trkpt>
      <trkpt lat="31.843620" lon="117.137820">
        <ele>36.0</ele>
        <time>2026-06-11T08:44:22.918742Z</time>
      </trkpt>
      <trkpt lat="31.843702" lon="117.137822">
        <ele>36.0</ele>
        <time>2026-06-11T08:44:28.288478Z</time>
      </trkpt>
      <trkpt lat="31.843783" lon="117.137839">
        <ele>36.0</ele>
        <time>2026-06-11T08:44:33.553617Z</time>
      </trkpt>
      <trkpt lat="31.843866" lon="117.137825">
        <ele>36.0</ele>
        <time>2026-06-11T08:44:38.950580Z</time>
      </trkpt>
      <trkpt lat="31.843950" lon="117.137844">
        <ele>36.0</ele>
        <time>2026-06-11T08:44:44.401932Z</time>
      </trkpt>
      <trkpt lat="31.844032" lon="117.137839">
        <ele>36.0</ele>
        <time>2026-06-11T08:44:49.768125Z</time>
      </trkpt>
      <trkpt lat="31.844117" lon="117.137849">
        <ele>36.0</ele>
        <time>2026-06-11T08:44:55.119508Z</time>
      </trkpt>
      <trkpt lat="31.844199" lon="117.137843">
        <ele>36.0</ele>
        <time>2026-06-11T08:45:00.588042Z</time>
      </trkpt>
      <trkpt lat="31.844279" lon="117.137844">
        <ele>36.0</ele>
        <time>2026-06-11T08:45:06.024345Z</time>
      </trkpt>
      <trkpt lat="31.844320" lon="117.137860">
        <ele>36.0</ele>
        <time>2026-06-11T08:45:08.611883Z</time>
      </trkpt>
      <trkpt lat="31.844404" lon="117.137854">
        <ele>36.0</ele>
        <time>2026-06-11T08:45:14.086831Z</time>
      </trkpt>
      <trkpt lat="31.844485" lon="117.137868">
        <ele>36.0</ele>
        <time>2026-06-11T08:45:19.503565Z</time>
      </trkpt>
      <trkpt lat="31.844569" lon="117.137871">
        <ele>36.0</ele>
        <time>2026-06-11T08:45:24.932005Z</time>
      </trkpt>
      <trkpt lat="31.844651" lon="117.137890">
        <ele>36.0</ele>
        <time>2026-06-11T08:45:30.254612Z</time>
      </trkpt>
      <trkpt lat="31.844735" lon="117.137874">
        <ele>36.0</ele>
        <time>2026-06-11T08:45:35.666722Z</time>
      </trkpt>
      <trkpt lat="31.844817" lon="117.137895">
        <ele>36.0</ele>
        <time>2026-06-11T08:45:41.127184Z</time>
      </trkpt>
      <trkpt lat="31.844899" lon="117.137882">
        <ele>36.0</ele>
        <time>2026-06-11T08:45:46.524979Z</time>
      </trkpt>
      <trkpt lat="31.844979" lon="117.137902">
        <ele>36.0</ele>
        <time>2026-06-11T08:45:51.939206Z</time>
      </trkpt>
      <trkpt lat="31.845020" lon="117.137900">
        <ele>36.0</ele>
        <time>2026-06-11T08:45:54.536322Z</time>
      </trkpt>
      <trkpt lat="31.845102" lon="117.137894">
        <ele>36.0</ele>
        <time>2026-06-11T08:45:59.835719Z</time>
      </trkpt>
      <trkpt lat="31.845185" lon="117.137909">
        <ele>36.0</ele>
        <time>2026-06-11T08:46:05.292262Z</time>
      </trkpt>
      <trkpt lat="31.845267" lon="117.137905">
        <ele>36.0</ele>
        <time>2026-06-11T08:46:10.764481Z</time>
      </trkpt>
      <trkpt lat="31.845348" lon="117.137925">
        <ele>36.0</ele>
        <time>2026-06-11T08:46:16.152645Z</time>
      </trkpt>
      <trkpt lat="31.845432" lon="117.137922">
        <ele>36.0</ele>
        <time>2026-06-11T08:46:21.427105Z</time>
      </trkpt>
      <trkpt lat="31.845515" lon="117.137937">
        <ele>36.0</ele>
        <time>2026-06-11T08:46:26.875440Z</time>
      </trkpt>
      <trkpt lat="31.845597" lon="117.137920">
        <ele>36.0</ele>
        <time>2026-06-11T08:46:32.120391Z</time>
      </trkpt>
      <trkpt lat="31.845682" lon="117.137939">
        <ele>36.0</ele>
        <time>2026-06-11T08:46:37.453032Z</time>
      </trkpt>
      <trkpt lat="31.845720" lon="117.137940">
        <ele>36.0</ele>
        <time>2026-06-11T08:46:40.091505Z</time>
      </trkpt>
      <trkpt lat="31.845800" lon="117.137950">
        <ele>36.0</ele>
        <time>2026-06-11T08:46:45.391359Z</time>
      </trkpt>
      <trkpt lat="31.845884" lon="117.137952">
        <ele>36.0</ele>
        <time>2026-06-11T08:46:50.795259Z</time>
      </trkpt>
      <trkpt lat="31.845966" lon="117.137962">
        <ele>36.0</ele>
        <time>2026-06-11T08:46:56.214546Z</time>
      </trkpt>
      <trkpt lat="31.846049" lon="117.137946">
        <ele>36.0</ele>
        <time>2026-06-11T08:47:01.667289Z</time>
      </trkpt>
      <trkpt lat="31.846133" lon="117.137975">
        <ele>36.0</ele>
        <time>2026-06-11T08:47:07.069349Z</time>
      </trkpt>
      <trkpt lat="31.846214" lon="117.137980">
        <ele>36.0</ele>
        <time>2026-06-11T08:47:12.518516Z</time>
      </trkpt>
      <trkpt lat="31.846296" lon="117.137978">
        <ele>36.0</ele>
        <time>2026-06-11T08:47:17.758456Z</time>
      </trkpt>
      <trkpt lat="31.846378" lon="117.137983">
        <ele>36.0</ele>
        <time>2026-06-11T08:47:23.103910Z</time>
      </trkpt>
      <trkpt lat="31.846420" lon="117.137980">
        <ele>36.0</ele>
        <time>2026-06-11T08:47:25.691600Z</time>
      </trkpt>
      <trkpt lat="31.846504" lon="117.137995">
        <ele>36.0</ele>
        <time>2026-06-11T08:47:31.064779Z</time>
      </trkpt>
      <trkpt lat="31.846585" lon="117.137993">
        <ele>36.0</ele>
        <time>2026-06-11T08:47:36.522689Z</time>
      </trkpt>
      <trkpt lat="31.846665" lon="117.137997">
        <ele>36.0</ele>
        <time>2026-06-11T08:47:41.900590Z</time>
      </trkpt>
      <trkpt lat="31.846749" lon="117.137998">
        <ele>36.0</ele>
        <time>2026-06-11T08:47:47.318415Z</time>
      </trkpt>
      <trkpt lat="31.846834" lon="117.138000">
        <ele>36.0</ele>
        <time>2026-06-11T08:47:52.630333Z</time>
      </trkpt>
      <trkpt lat="31.846914" lon="117.138002">
        <ele>36.0</ele>
        <time>2026-06-11T08:47:58.071548Z</time>
      </trkpt>
      <trkpt lat="31.846997" lon="117.138015">
        <ele>36.0</ele>
        <time>2026-06-11T08:48:03.523223Z</time>
      </trkpt>
      <trkpt lat="31.847081" lon="117.138008">
        <ele>36.0</ele>
        <time>2026-06-11T08:48:08.842780Z</time>
      </trkpt>
      <trkpt lat="31.847120" lon="117.138020">
        <ele>36.0</ele>
        <time>2026-06-11T08:48:11.460061Z</time>
      </trkpt>
      <trkpt lat="31.847201" lon="117.138034">
        <ele>36.0</ele>
        <time>2026-06-11T08:48:16.733605Z</time>
      </trkpt>
      <trkpt lat="31.847284" lon="117.138021">
        <ele>36.0</ele>
        <time>2026-06-11T08:48:22.100946Z</time>
      </trkpt>
      <trkpt lat="31.847367" lon="117.138035">
        <ele>36.0</ele>
        <time>2026-06-11T08:48:27.447316Z</time>
      </trkpt>
      <trkpt lat="31.847451" lon="117.138052">
        <ele>36.0</ele>
        <time>2026-06-11T08:48:32.846136Z</time>
      </trkpt>
      <trkpt lat="31.847534" lon="117.138047">
        <ele>36.0</ele>
        <time>2026-06-11T08:48:38.340596Z</time>
      </trkpt>
      <trkpt lat="31.847614" lon="117.138057">
        <ele>36.0</ele>
        <time>2026-06-11T08:48:43.763703Z</time>
      </trkpt>
      <trkpt lat="31.847697" lon="117.138066">
        <ele>36.0</ele>
        <time>2026-06-11T08:48:49.077534Z</time>
      </trkpt>
      <trkpt lat="31.847778" lon="117.138047">
        <ele>36.0</ele>
        <time>2026-06-11T08:48:54.432295Z</time>
      </trkpt>
      <trkpt lat="31.847820" lon="117.138060">
        <ele>36.0</ele>
        <time>2026-06-11T08:48:57.038138Z</time>
      </trkpt>
      <trkpt lat="31.847903" lon="117.138056">
        <ele>36.0</ele>
        <time>2026-06-11T08:49:02.412747Z</time>
      </trkpt>
      <trkpt lat="31.847983" lon="117.138059">
        <ele>36.0</ele>
        <time>2026-06-11T08:49:07.665643Z</time>
      </trkpt>
      <trkpt lat="31.848069" lon="117.138081">
        <ele>36.0</ele>
        <time>2026-06-11T08:49:12.998975Z</time>
      </trkpt>
      <trkpt lat="31.848150" lon="117.138082">
        <ele>36.0</ele>
        <time>2026-06-11T08:49:18.323308Z</time>
      </trkpt>
      <trkpt lat="31.848233" lon="117.138082">
        <ele>36.0</ele>
        <time>2026-06-11T08:49:23.571304Z</time>
      </trkpt>
      <trkpt lat="31.848316" lon="117.138102">
        <ele>36.0</ele>
        <time>2026-06-11T08:49:29.030812Z</time>
      </trkpt>
      <trkpt lat="31.848398" lon="117.138101">
        <ele>36.0</ele>
        <time>2026-06-11T08:49:34.441268Z</time>
      </trkpt>
      <trkpt lat="31.848477" lon="117.138111">
        <ele>36.0</ele>
        <time>2026-06-11T08:49:39.856094Z</time>
      </trkpt>
      <trkpt lat="31.848520" lon="117.138100">
        <ele>36.0</ele>
        <time>2026-06-11T08:49:42.493847Z</time>
      </trkpt>
      <trkpt lat="31.848602" lon="117.138105">
        <ele>36.0</ele>
        <time>2026-06-11T08:49:47.806729Z</time>
      </trkpt>
      <trkpt lat="31.848686" lon="117.138107">
        <ele>36.0</ele>
        <time>2026-06-11T08:49:53.194296Z</time>
      </trkpt>
      <trkpt lat="31.848768" lon="117.138116">
        <ele>36.0</ele>
        <time>2026-06-11T08:49:58.440186Z</time>
      </trkpt>
      <trkpt lat="31.848849" lon="117.138106">
        <ele>36.0</ele>
        <time>2026-06-11T08:50:03.857606Z</time>
      </trkpt>
      <trkpt lat="31.848931" lon="117.138118">
        <ele>36.0</ele>
        <time>2026-06-11T08:50:09.209315Z</time>
      </trkpt>
      <trkpt lat="31.849013" lon="117.138135">
        <ele>36.0</ele>
        <time>2026-06-11T08:50:14.676020Z</time>
      </trkpt>
      <trkpt lat="31.849096" lon="117.138122">
        <ele>36.0</ele>
        <time>2026-06-11T08:50:20.084020Z</time>
      </trkpt>
      <trkpt lat="31.849179" lon="117.138133">
        <ele>36.0</ele>
        <time>2026-06-11T08:50:25.451388Z</time>
      </trkpt>
      <trkpt lat="31.849200" lon="117.138140">
        <ele>36.0</ele>
        <time>2026-06-11T08:50:26.785939Z</time>
      </trkpt>
      <trkpt lat="31.849281" lon="117.138147">
        <ele>36.0</ele>
        <time>2026-06-11T08:50:32.142467Z</time>
      </trkpt>
      <trkpt lat="31.849367" lon="117.138146">
        <ele>36.0</ele>
        <time>2026-06-11T08:50:37.502249Z</time>
      </trkpt>
      <trkpt lat="31.849446" lon="117.138151">
        <ele>36.0</ele>
        <time>2026-06-11T08:50:42.882008Z</time>
      </trkpt>
      <trkpt lat="31.849531" lon="117.138165">
        <ele>36.0</ele>
        <time>2026-06-11T08:50:48.158261Z</time>
      </trkpt>
      <trkpt lat="31.849610" lon="117.138175">
        <ele>36.0</ele>
        <time>2026-06-11T08:50:53.591858Z</time>
      </trkpt>
      <trkpt lat="31.849696" lon="117.138171">
        <ele>36.0</ele>
        <time>2026-06-11T08:50:59.014794Z</time>
      </trkpt>
      <trkpt lat="31.849778" lon="117.138183">
        <ele>36.0</ele>
        <time>2026-06-11T08:51:04.406485Z</time>
      </trkpt>
      <trkpt lat="31.849860" lon="117.138171">
        <ele>36.0</ele>
        <time>2026-06-11T08:51:09.873604Z</time>
      </trkpt>
      <trkpt lat="31.849920" lon="117.138180">
        <ele>36.0</ele>
        <time>2026-06-11T08:51:13.756715Z</time>
      </trkpt>
      <trkpt lat="31.849915" lon="117.138178">
        <ele>36.0</ele>
        <time>2026-06-11T08:51:14.756715Z</time>
      </trkpt>
      <trkpt lat="31.849920" lon="117.138176">
        <ele>36.0</ele>
        <time>2026-06-11T08:51:15.756715Z</time>
      </trkpt>
      <trkpt lat="31.850003" lon="117.138179">
        <ele>36.0</ele>
        <time>2026-06-11T08:51:21.059323Z</time>
      </trkpt>
      <trkpt lat="31.850083" lon="117.138191">
        <ele>36.0</ele>
        <time>2026-06-11T08:51:26.397505Z</time>
      </trkpt>
      <trkpt lat="31.850169" lon="117.138199">
        <ele>36.0</ele>
        <time>2026-06-11T08:51:31.748025Z</time>
      </trkpt>
      <trkpt lat="31.850250" lon="117.138196">
        <ele>36.0</ele>
        <time>2026-06-11T08:51:37.051134Z</time>
      </trkpt>
      <trkpt lat="31.850330" lon="117.138203">
        <ele>36.0</ele>
        <time>2026-06-11T08:51:42.455157Z</time>
      </trkpt>
      <trkpt lat="31.850417" lon="117.138206">
        <ele>36.0</ele>
        <time>2026-06-11T08:51:47.868479Z</time>
      </trkpt>
      <trkpt lat="31.850498" lon="117.138200">
        <ele>36.0</ele>
        <time>2026-06-11T08:51:53.193171Z</time>
      </trkpt>
      <trkpt lat="31.850578" lon="117.138210">
        <ele>36.0</ele>
        <time>2026-06-11T08:51:58.430933Z</time>
      </trkpt>
      <trkpt lat="31.850640" lon="117.138220">
        <ele>36.0</ele>
        <time>2026-06-11T08:52:02.298190Z</time>
      </trkpt>
      <trkpt lat="31.850720" lon="117.138236">
        <ele>36.0</ele>
        <time>2026-06-11T08:52:07.578235Z</time>
      </trkpt>
      <trkpt lat="31.850807" lon="117.138222">
        <ele>36.0</ele>
        <time>2026-06-11T08:52:12.859122Z</time>
      </trkpt>
      <trkpt lat="31.850886" lon="117.138220">
        <ele>36.0</ele>
        <time>2026-06-11T08:52:18.356987Z</time>
      </trkpt>
      <trkpt lat="31.850970" lon="117.138229">
        <ele>36.0</ele>
        <time>2026-06-11T08:52:23.599636Z</time>
      </trkpt>
      <trkpt lat="31.851053" lon="117.138230">
        <ele>36.0</ele>
        <time>2026-06-11T08:52:28.877136Z</time>
      </trkpt>
      <trkpt lat="31.851134" lon="117.138236">
        <ele>36.0</ele>
        <time>2026-06-11T08:52:34.154793Z</time>
      </trkpt>
      <trkpt lat="31.851217" lon="117.138242">
        <ele>36.0</ele>
        <time>2026-06-11T08:52:39.491737Z</time>
      </trkpt>
      <trkpt lat="31.851300" lon="117.138244">
        <ele>36.0</ele>
        <time>2026-06-11T08:52:44.956544Z</time>
      </trkpt>
      <trkpt lat="31.851360" lon="117.138260">
        <ele>36.0</ele>
        <time>2026-06-11T08:52:48.872824Z</time>
      </trkpt>
      <trkpt lat="31.851442" lon="117.138264">
        <ele>36.0</ele>
        <time>2026-06-11T08:52:54.359224Z</time>
      </trkpt>
      <trkpt lat="31.851524" lon="117.138259">
        <ele>36.0</ele>
        <time>2026-06-11T08:52:59.596213Z</time>
      </trkpt>
      <trkpt lat="31.851606" lon="117.138276">
        <ele>36.0</ele>
        <time>2026-06-11T08:53:05.077055Z</time>
      </trkpt>
      <trkpt lat="31.851690" lon="117.138277">
        <ele>36.0</ele>
        <time>2026-06-11T08:53:10.416942Z</time>
      </trkpt>
      <trkpt lat="31.851772" lon="117.138296">
        <ele>36.0</ele>
        <time>2026-06-11T08:53:15.716386Z</time>
      </trkpt>
      <trkpt lat="31.851856" lon="117.138289">
        <ele>36.0</ele>
        <time>2026-06-11T08:53:21.074754Z</time>
      </trkpt>
      <trkpt lat="31.851938" lon="117.138298">
        <ele>36.0</ele>
        <time>2026-06-11T08:53:26.321205Z</time>
      </trkpt>
      <trkpt lat="31.852021" lon="117.138295">
        <ele>36.0</ele>
        <time>2026-06-11T08:53:31.729309Z</time>
      </trkpt>
      <trkpt lat="31.852080" lon="117.138300">
        <ele>36.0</ele>
        <time>2026-06-11T08:53:35.590824Z</time>
      </trkpt>
      <trkpt lat="31.852163" lon="117.138305">
        <ele>36.0</ele>
        <time>2026-06-11T08:53:40.828760Z</time>
      </trkpt>
      <trkpt lat="31.852246" lon="117.138304">
        <ele>36.0</ele>
        <time>2026-06-11T08:53:46.280892Z</time>
      </trkpt>
      <trkpt lat="31.852326" lon="117.138306">
        <ele>36.0</ele>
        <time>2026-06-11T08:53:51.740792Z</time>
      </trkpt>
      <trkpt lat="31.852411" lon="117.138327">
        <ele>36.0</ele>
        <time>2026-06-11T08:53:56.989028Z</time>
      </trkpt>
      <trkpt lat="31.852492" lon="117.138315">
        <ele>36.0</ele>
        <time>2026-06-11T08:54:02.449843Z</time>
      </trkpt>
      <trkpt lat="31.852574" lon="117.138324">
        <ele>36.0</ele>
        <time>2026-06-11T08:54:07.891761Z</time>
      </trkpt>
      <trkpt lat="31.852656" lon="117.138328">
        <ele>36.0</ele>
        <time>2026-06-11T08:54:13.323880Z</time>
      </trkpt>
      <trkpt lat="31.852740" lon="117.138332">
        <ele>36.0</ele>
        <time>2026-06-11T08:54:18.652929Z</time>
      </trkpt>
      <trkpt lat="31.852780" lon="117.138340">
        <ele>36.0</ele>
        <time>2026-06-11T08:54:21.290662Z</time>
      </trkpt>
      <trkpt lat="31.852864" lon="117.138339">
        <ele>36.0</ele>
        <time>2026-06-11T08:54:26.586912Z</time>
      </trkpt>
      <trkpt lat="31.852946" lon="117.138338">
        <ele>36.0</ele>
        <time>2026-06-11T08:54:32.082028Z</time>
      </trkpt>
      <trkpt lat="31.853028" lon="117.138344">
        <ele>36.0</ele>
        <time>2026-06-11T08:54:37.516144Z</time>
      </trkpt>
      <trkpt lat="31.853110" lon="117.138360">
        <ele>36.0</ele>
        <time>2026-06-11T08:54:42.914323Z</time>
      </trkpt>
      <trkpt lat="31.853194" lon="117.138365">
        <ele>36.0</ele>
        <time>2026-06-11T08:54:48.280433Z</time>
      </trkpt>
      <trkpt lat="31.853276" lon="117.138361">
        <ele>36.0</ele>
        <time>2026-06-11T08:54:53.667939Z</time>
      </trkpt>
      <trkpt lat="31.853359" lon="117.138382">
        <ele>36.0</ele>
        <time>2026-06-11T08:54:58.970465Z</time>
      </trkpt>
      <trkpt lat="31.853441" lon="117.138385">
        <ele>36.0</ele>
        <time>2026-06-11T08:55:04.401383Z</time>
      </trkpt>
      <trkpt lat="31.853500" lon="117.138380">
        <ele>36.0</ele>
        <time>2026-06-11T08:55:08.288506Z</time>
      </trkpt>
      <trkpt lat="31.853580" lon="117.138388">
        <ele>36.0</ele>
        <time>2026-06-11T08:55:13.597027Z</time>
      </trkpt>
      <trkpt lat="31.853666" lon="117.138393">
        <ele>36.0</ele>
        <time>2026-06-11T08:55:18.942116Z</time>
      </trkpt>
      <trkpt lat="31.853750" lon="117.138380">
        <ele>36.0</ele>
        <time>2026-06-11T08:55:24.368668Z</time>
      </trkpt>
      <trkpt lat="31.853828" lon="117.138396">
        <ele>36.0</ele>
        <time>2026-06-11T08:55:29.660367Z</time>
      </trkpt>
      <trkpt lat="31.853914" lon="117.138415">
        <ele>36.0</ele>
        <time>2026-06-11T08:55:35.082961Z</time>
      </trkpt>
      <trkpt lat="31.853994" lon="117.138416">
        <ele>36.0</ele>
        <time>2026-06-11T08:55:40.404803Z</time>
      </trkpt>
      <trkpt lat="31.854075" lon="117.138424">
        <ele>36.0</ele>
        <time>2026-06-11T08:55:45.704093Z</time>
      </trkpt>
      <trkpt lat="31.854158" lon="117.138424">
        <ele>36.0</ele>
        <time>2026-06-11T08:55:50.964464Z</time>
      </trkpt>
      <trkpt lat="31.854220" lon="117.138420">
        <ele>36.0</ele>
        <time>2026-06-11T08:55:54.868941Z</time>
      </trkpt>
      <trkpt lat="31.854304" lon="117.138419">
        <ele>36.0</ele>
        <time>2026-06-11T08:56:00.144917Z</time>
      </trkpt>
      <trkpt lat="31.854383" lon="117.138435">
        <ele>36.0</ele>
        <time>2026-06-11T08:56:05.611162Z</time>
      </trkpt>
      <trkpt lat="31.854467" lon="117.138421">
        <ele>36.0</ele>
        <time>2026-06-11T08:56:10.923765Z</time>
      </trkpt>
      <trkpt lat="31.854548" lon="117.138448">
        <ele>36.0</ele>
        <time>2026-06-11T08:56:16.267836Z</time>
      </trkpt>
      <trkpt lat="31.854632" lon="117.138433">
        <ele>36.0</ele>
        <time>2026-06-11T08:56:21.615199Z</time>
      </trkpt>
      <trkpt lat="31.854713" lon="117.138450">
        <ele>36.0</ele>
        <time>2026-06-11T08:56:26.993294Z</time>
      </trkpt>
      <trkpt lat="31.854796" lon="117.138461">
        <ele>36.0</ele>
        <time>2026-06-11T08:56:32.438080Z</time>
      </trkpt>
      <trkpt lat="31.854878" lon="117.138445">
        <ele>36.0</ele>
        <time>2026-06-11T08:56:37.681522Z</time>
      </trkpt>
      <trkpt lat="31.854940" lon="117.138460">
        <ele>36.0</ele>
        <time>2026-06-11T08:56:41.584629Z</time>
      </trkpt>
      <trkpt lat="31.855025" lon="117.138454">
        <ele>36.0</ele>
        <time>2026-06-11T08:56:46.834670Z</time>
      </trkpt>
      <trkpt lat="31.855103" lon="117.138478">
        <ele>36.0</ele>
        <time>2026-06-11T08:56:52.259196Z</time>
      </trkpt>
      <trkpt lat="31.855187" lon="117.138475">
        <ele>36.0</ele>
        <time>2026-06-11T08:56:57.508195Z</time>
      </trkpt>
      <trkpt lat="31.855270" lon="117.138483">
        <ele>36.0</ele>
        <time>2026-06-11T08:57:02.916294Z</time>
      </trkpt>
      <trkpt lat="31.855353" lon="117.138477">
        <ele>36.0</ele>
        <time>2026-06-11T08:57:08.193441Z</time>
      </trkpt>
      <trkpt lat="31.855436" lon="117.138478">
        <ele>36.0</ele>
        <time>2026-06-11T08:57:13.486485Z</time>
      </trkpt>
      <trkpt lat="31.855519" lon="117.138497">
        <ele>36.0</ele>
        <time>2026-06-11T08:57:18.751192Z</time>
      </trkpt>
      <trkpt lat="31.855599" lon="117.138483">
        <ele>36.0</ele>
        <time>2026-06-11T08:57:24.153915Z</time>
      </trkpt>
      <trkpt lat="31.855660" lon="117.138500">
        <ele>36.0</ele>
        <time>2026-06-11T08:57:28.109443Z</time>
      </trkpt>
      <trkpt lat="31.855744" lon="117.138507">
        <ele>36.0</ele>
        <time>2026-06-11T08:57:33.535493Z</time>
      </trkpt>
      <trkpt lat="31.855827" lon="117.138521">
        <ele>36.0</ele>
        <time>2026-06-11T08:57:38.970492Z</time>
      </trkpt>
      <trkpt lat="31.855906" lon="117.138513">
        <ele>36.0</ele>
        <time>2026-06-11T08:57:44.447738Z</time>
      </trkpt>
      <trkpt lat="31.855991" lon="117.138533">
        <ele>36.0</ele>
        <time>2026-06-11T08:57:49.925269Z</time>
      </trkpt>
      <trkpt lat="31.856071" lon="117.138528">
        <ele>36.0</ele>
        <time>2026-06-11T08:57:55.307679Z</time>
      </trkpt>
      <trkpt lat="31.856153" lon="117.138530">
        <ele>36.0</ele>
        <time>2026-06-11T08:58:00.691885Z</time>
      </trkpt>
      <trkpt lat="31.856238" lon="117.138529">
        <ele>36.0</ele>
        <time>2026-06-11T08:58:06.062312Z</time>
      </trkpt>
      <trkpt lat="31.856319" lon="117.138542">
        <ele>36.0</ele>
        <time>2026-06-11T08:58:11.524072Z</time>
      </trkpt>
      <trkpt lat="31.856360" lon="117.138540">
        <ele>36.0</ele>
        <time>2026-06-11T08:58:14.115168Z</time>
      </trkpt>
      <trkpt lat="31.856442" lon="117.138536">
        <ele>36.0</ele>
        <time>2026-06-11T08:58:19.572578Z</time>
      </trkpt>
      <trkpt lat="31.856527" lon="117.138548">
        <ele>36.0</ele>
        <time>2026-06-11T08:58:24.891110Z</time>
      </trkpt>
      <trkpt lat="31.856607" lon="117.138545">
        <ele>36.0</ele>
        <time>2026-06-11T08:58:30.338206Z</time>
      </trkpt>
      <trkpt lat="31.856688" lon="117.138569">
        <ele>36.0</ele>
        <time>2026-06-11T08:58:35.651826Z</time>
      </trkpt>
      <trkpt lat="31.856774" lon="117.138553">
        <ele>36.0</ele>
        <time>2026-06-11T08:58:40.955337Z</time>
      </trkpt>
      <trkpt lat="31.856857" lon="117.138560">
        <ele>36.0</ele>
        <time>2026-06-11T08:58:46.430829Z</time>
      </trkpt>
      <trkpt lat="31.856936" lon="117.138573">
        <ele>36.0</ele>
        <time>2026-06-11T08:58:51.901062Z</time>
      </trkpt>
      <trkpt lat="31.857018" lon="117.138581">
        <ele>36.0</ele>
        <time>2026-06-11T08:58:57.306146Z</time>
      </trkpt>
      <trkpt lat="31.857020" lon="117.138580">
        <ele>36.0</ele>
        <time>2026-06-11T08:58:57.325583Z</time>
      </trkpt>
      <trkpt lat="31.857101" lon="117.138586">
        <ele>36.0</ele>
        <time>2026-06-11T08:59:02.656133Z</time>
      </trkpt>
      <trkpt lat="31.857184" lon="117.138578">
        <ele>36.0</ele>
        <time>2026-06-11T08:59:08.059280Z</time>
      </trkpt>
      <trkpt lat="31.857266" lon="117.138590">
        <ele>36.0</ele>
        <time>2026-06-11T08:59:13.307092Z</time>
      </trkpt>
      <trkpt lat="31.857349" lon="117.138591">
        <ele>36.0</ele>
        <time>2026-06-11T08:59:18.682932Z</time>
      </trkpt>
      <trkpt lat="31.857434" lon="117.138618">
        <ele>36.0</ele>
        <time>2026-06-11T08:59:23.964189Z</time>
      </trkpt>
      <trkpt lat="31.857515" lon="117.138610">
        <ele>36.0</ele>
        <time>2026-06-11T08:59:29.316704Z</time>
      </trkpt>
      <trkpt lat="31.857595" lon="117.138613">
        <ele>36.0</ele>
        <time>2026-06-11T08:59:34.552282Z</time>
      </trkpt>
      <trkpt lat="31.857681" lon="117.138610">
        <ele>36.0</ele>
        <time>2026-06-11T08:59:39.936573Z</time>
      </trkpt>
      <trkpt lat="31.857680" lon="117.138620">
        <ele>36.0</ele>
        <time>2026-06-11T08:59:39.955687Z</time>
      </trkpt>
      <trkpt lat="31.857760" lon="117.138639">
        <ele>36.0</ele>
        <time>2026-06-11T08:59:45.446646Z</time>
      </trkpt>
      <trkpt lat="31.857845" lon="117.138638">
        <ele>36.0</ele>
        <time>2026-06-11T08:59:50.761173Z</time>
      </trkpt>
      <trkpt lat="31.857928" lon="117.138635">
        <ele>36.0</ele>
        <time>2026-06-11T08:59:56.123016Z</time>
      </trkpt>
      <trkpt lat="31.858011" lon="117.138648">
        <ele>36.0</ele>
        <time>2026-06-11T09:00:01.506537Z</time>
      </trkpt>
      <trkpt lat="31.858094" lon="117.138642">
        <ele>36.0</ele>
        <time>2026-06-11T09:00:06.924206Z</time>
      </trkpt>
      <trkpt lat="31.858173" lon="117.138663">
        <ele>36.0</ele>
        <time>2026-06-11T09:00:12.355776Z</time>
      </trkpt>
      <trkpt lat="31.858220" lon="117.138660">
        <ele>36.0</ele>
        <time>2026-06-11T09:00:15.361309Z</time>
      </trkpt>
      <trkpt lat="31.858300" lon="117.138662">
        <ele>36.0</ele>
        <time>2026-06-11T09:00:20.821556Z</time>
      </trkpt>
      <trkpt lat="31.858384" lon="117.138673">
        <ele>36.0</ele>
        <time>2026-06-11T09:00:26.116772Z</time>
      </trkpt>
      <trkpt lat="31.858467" lon="117.138689">
        <ele>36.0</ele>
        <time>2026-06-11T09:00:31.510702Z</time>
      </trkpt>
      <trkpt lat="31.858550" lon="117.138674">
        <ele>36.0</ele>
        <time>2026-06-11T09:00:36.808587Z</time>
      </trkpt>
      <trkpt lat="31.858634" lon="117.138687">
        <ele>36.0</ele>
        <time>2026-06-11T09:00:42.252093Z</time>
      </trkpt>
      <trkpt lat="31.858700" lon="117.138700">
        <ele>36.0</ele>
        <time>2026-06-11T09:00:46.668097Z</time>
      </trkpt>
      <trkpt lat="31.858713" lon="117.138797">
        <ele>36.0</ele>
        <time>2026-06-11T09:00:52.037625Z</time>
      </trkpt>
      <trkpt lat="31.858726" lon="117.138892">
        <ele>36.0</ele>
        <time>2026-06-11T09:00:57.363144Z</time>
      </trkpt>
      <trkpt lat="31.858730" lon="117.138987">
        <ele>36.0</ele>
        <time>2026-06-11T09:01:02.615169Z</time>
      </trkpt>
      <trkpt lat="31.858742" lon="117.139084">
        <ele>36.0</ele>
        <time>2026-06-11T09:01:07.880144Z</time>
      </trkpt>
      <trkpt lat="31.858757" lon="117.139184">
        <ele>36.0</ele>
        <time>2026-06-11T09:01:13.366331Z</time>
      </trkpt>
      <trkpt lat="31.858760" lon="117.139260">
        <ele>36.0</ele>
        <time>2026-06-11T09:01:17.665535Z</time>
      </trkpt>
      <trkpt lat="31.858764" lon="117.139359">
        <ele>36.0</ele>
        <time>2026-06-11T09:01:22.946127Z</time>
      </trkpt>
      <trkpt lat="31.858778" lon="117.139452">
        <ele>36.0</ele>
        <time>2026-06-11T09:01:28.415390Z</time>
      </trkpt>
      <trkpt lat="31.858787" lon="117.139550">
        <ele>36.0</ele>
        <time>2026-06-11T09:01:33.771277Z</time>
      </trkpt>
      <trkpt lat="31.858804" lon="117.139644">
        <ele>36.0</ele>
        <time>2026-06-11T09:01:39.270260Z</time>
      </trkpt>
      <trkpt lat="31.858799" lon="117.139743">
        <ele>36.0</ele>
        <time>2026-06-11T09:01:44.764498Z</time>
      </trkpt>
      <trkpt lat="31.858805" lon="117.139841">
        <ele>36.0</ele>
        <time>2026-06-11T09:01:50.160981Z</time>
      </trkpt>
      <trkpt lat="31.858820" lon="117.139880">
        <ele>36.0</ele>
        <time>2026-06-11T09:01:52.428406Z</time>
      </trkpt>
      <trkpt lat="31.858823" lon="117.139876">
        <ele>36.0</ele>
        <time>2026-06-11T09:01:54.428406Z</time>
      </trkpt>
      <trkpt lat="31.858821" lon="117.139885">
        <ele>36.0</ele>
        <time>2026-06-11T09:01:55.428406Z</time>
      </trkpt>
      <trkpt lat="31.858823" lon="117.139977">
        <ele>36.0</ele>
        <time>2026-06-11T09:02:00.804115Z</time>
      </trkpt>
      <trkpt lat="31.858837" lon="117.140074">
        <ele>36.0</ele>
        <time>2026-06-11T09:02:06.048907Z</time>
      </trkpt>
      <trkpt lat="31.858852" lon="117.140170">
        <ele>36.0</ele>
        <time>2026-06-11T09:02:11.442210Z</time>
      </trkpt>
      <trkpt lat="31.858856" lon="117.140267">
        <ele>36.0</ele>
        <time>2026-06-11T09:02:16.907929Z</time>
      </trkpt>
      <trkpt lat="31.858869" lon="117.140362">
        <ele>36.0</ele>
        <time>2026-06-11T09:02:22.296119Z</time>
      </trkpt>
      <trkpt lat="31.858874" lon="117.140461">
        <ele>36.0</ele>
        <time>2026-06-11T09:02:27.779018Z</time>
      </trkpt>
      <trkpt lat="31.858880" lon="117.140520">
        <ele>36.0</ele>
        <time>2026-06-11T09:02:31.127359Z</time>
      </trkpt>
      <trkpt lat="31.858886" lon="117.140616">
        <ele>36.0</ele>
        <time>2026-06-11T09:02:36.515857Z</time>
      </trkpt>
      <trkpt lat="31.858904" lon="117.140710">
        <ele>36.0</ele>
        <time>2026-06-11T09:02:41.776487Z</time>
      </trkpt>
      <trkpt lat="31.858916" lon="117.140810">
        <ele>36.0</ele>
        <time>2026-06-11T09:02:47.252036Z</time>
      </trkpt>
      <trkpt lat="31.858924" lon="117.140908">
        <ele>36.0</ele>
        <time>2026-06-11T09:02:52.529573Z</time>
      </trkpt>
      <trkpt lat="31.858933" lon="117.141004">
        <ele>36.0</ele>
        <time>2026-06-11T09:02:57.862210Z</time>
      </trkpt>
      <trkpt lat="31.858932" lon="117.141103">
        <ele>36.0</ele>
        <time>2026-06-11T09:03:03.284975Z</time>
      </trkpt>
      <trkpt lat="31.858940" lon="117.141160">
        <ele>36.0</ele>
        <time>2026-06-11T09:03:06.606395Z</time>
      </trkpt>
      <trkpt lat="31.858943" lon="117.141260">
        <ele>36.0</ele>
        <time>2026-06-11T09:03:12.010075Z</time>
      </trkpt>
      <trkpt lat="31.858968" lon="117.141352">
        <ele>36.0</ele>
        <time>2026-06-11T09:03:17.308560Z</time>
      </trkpt>
      <trkpt lat="31.858958" lon="117.141452">
        <ele>36.0</ele>
        <time>2026-06-11T09:03:22.609314Z</time>
      </trkpt>
      <trkpt lat="31.858981" lon="117.141544">
        <ele>36.0</ele>
        <time>2026-06-11T09:03:27.870934Z</time>
      </trkpt>
      <trkpt lat="31.858974" lon="117.141643">
        <ele>36.0</ele>
        <time>2026-06-11T09:03:33.268205Z</time>
      </trkpt>
      <trkpt lat="31.859005" lon="117.141739">
        <ele>36.0</ele>
        <time>2026-06-11T09:03:38.548652Z</time>
      </trkpt>
      <trkpt lat="31.859000" lon="117.141800">
        <ele>36.0</ele>
        <time>2026-06-11T09:03:41.932084Z</time>
      </trkpt>
      <trkpt lat="31.859014" lon="117.141898">
        <ele>36.0</ele>
        <time>2026-06-11T09:03:47.404362Z</time>
      </trkpt>
      <trkpt lat="31.859009" lon="117.141996">
        <ele>36.0</ele>
        <time>2026-06-11T09:03:52.812946Z</time>
      </trkpt>
      <trkpt lat="31.859021" lon="117.142088">
        <ele>36.0</ele>
        <time>2026-06-11T09:03:58.143610Z</time>
      </trkpt>
      <trkpt lat="31.859032" lon="117.142189">
        <ele>36.0</ele>
        <time>2026-06-11T09:04:03.419457Z</time>
      </trkpt>
      <trkpt lat="31.859051" lon="117.142282">
        <ele>36.0</ele>
        <time>2026-06-11T09:04:08.874610Z</time>
      </trkpt>
      <trkpt lat="31.859049" lon="117.142383">
        <ele>36.0</ele>
        <time>2026-06-11T09:04:14.213108Z</time>
      </trkpt>
      <trkpt lat="31.859060" lon="117.142420">
        <ele>36.0</ele>
        <time>2026-06-11T09:04:16.463914Z</time>
      </trkpt>
      <trkpt lat="31.859056" lon="117.142517">
        <ele>36.0</ele>
        <time>2026-06-11T09:04:21.798485Z</time>
      </trkpt>
      <trkpt lat="31.859067" lon="117.142615">
        <ele>36.0</ele>
        <time>2026-06-11T09:04:27.036316Z</time>
      </trkpt>
      <trkpt lat="31.859077" lon="117.142711">
        <ele>36.0</ele>
        <time>2026-06-11T09:04:32.401143Z</time>
      </trkpt>
      <trkpt lat="31.859081" lon="117.142811">
        <ele>36.0</ele>
        <time>2026-06-11T09:04:37.730816Z</time>
      </trkpt>
      <trkpt lat="31.859091" lon="117.142907">
        <ele>36.0</ele>
        <time>2026-06-11T09:04:43.205439Z</time>
      </trkpt>
      <trkpt lat="31.859107" lon="117.143000">
        <ele>36.0</ele>
        <time>2026-06-11T09:04:48.526927Z</time>
      </trkpt>
      <trkpt lat="31.859100" lon="117.143020">
        <ele>36.0</ele>
        <time>2026-06-11T09:04:49.541250Z</time>
      </trkpt>
      <trkpt lat="31.859108" lon="117.143118">
        <ele>36.0</ele>
        <time>2026-06-11T09:04:54.935837Z</time>
      </trkpt>
      <trkpt lat="31.859116" lon="117.143216">
        <ele>36.0</ele>
        <time>2026-06-11T09:05:00.215749Z</time>
      </trkpt>
      <trkpt lat="31.859120" lon="117.143313">
        <ele>36.0</ele>
        <time>2026-06-11T09:05:05.663259Z</time>
      </trkpt>
      <trkpt lat="31.859130" lon="117.143406">
        <ele>36.0</ele>
        <time>2026-06-11T09:05:10.936440Z</time>
      </trkpt>
      <trkpt lat="31.859137" lon="117.143503">
        <ele>36.0</ele>
        <time>2026-06-11T09:05:16.409542Z</time>
      </trkpt>
      <trkpt lat="31.859144" lon="117.143603">
        <ele>36.0</ele>
        <time>2026-06-11T09:05:21.652089Z</time>
      </trkpt>
      <trkpt lat="31.859140" lon="117.143620">
        <ele>36.0</ele>
        <time>2026-06-11T09:05:22.679760Z</time>
      </trkpt>
      <trkpt lat="31.859158" lon="117.143716">
        <ele>36.0</ele>
        <time>2026-06-11T09:05:27.947170Z</time>
      </trkpt>
      <trkpt lat="31.859148" lon="117.143813">
        <ele>36.0</ele>
        <time>2026-06-11T09:05:33.215365Z</time>
      </trkpt>
      <trkpt lat="31.859159" lon="117.143910">
        <ele>36.0</ele>
        <time>2026-06-11T09:05:38.594495Z</time>
      </trkpt>
      <trkpt lat="31.859161" lon="117.144007">
        <ele>36.0</ele>
        <time>2026-06-11T09:05:44.044147Z</time>
      </trkpt>
      <trkpt lat="31.859174" lon="117.144106">
        <ele>36.0</ele>
        <time>2026-06-11T09:05:49.294609Z</time>
      </trkpt>
      <trkpt lat="31.859180" lon="117.144180">
        <ele>36.0</ele>
        <time>2026-06-11T09:05:53.479267Z</time>
      </trkpt>
      <trkpt lat="31.859179" lon="117.144280">
        <ele>36.0</ele>
        <time>2026-06-11T09:05:58.917666Z</time>
      </trkpt>
      <trkpt lat="31.859190" lon="117.144372">
        <ele>36.0</ele>
        <time>2026-06-11T09:06:04.188912Z</time>
      </trkpt>
      <trkpt lat="31.859211" lon="117.144467">
        <ele>36.0</ele>
        <time>2026-06-11T09:06:09.682663Z</time>
      </trkpt>
      <trkpt lat="31.859201" lon="117.144567">
        <ele>36.0</ele>
        <time>2026-06-11T09:06:14.944821Z</time>
      </trkpt>
      <trkpt lat="31.859225" lon="117.144661">
        <ele>36.0</ele>
        <time>2026-06-11T09:06:20.331890Z</time>
      </trkpt>
      <trkpt lat="31.859220" lon="117.144760">
        <ele>36.0</ele>
        <time>2026-06-11T09:06:25.623258Z</time>
      </trkpt>
      <trkpt lat="31.859220" lon="117.144859">
        <ele>36.0</ele>
        <time>2026-06-11T09:06:31.122646Z</time>
      </trkpt>
      <trkpt lat="31.859237" lon="117.144952">
        <ele>36.0</ele>
        <time>2026-06-11T09:06:36.579257Z</time>
      </trkpt>
      <trkpt lat="31.859257" lon="117.145050">
        <ele>36.0</ele>
        <time>2026-06-11T09:06:42.072444Z</time>
      </trkpt>
      <trkpt lat="31.859245" lon="117.145148">
        <ele>36.0</ele>
        <time>2026-06-11T09:06:47.316989Z</time>
      </trkpt>
      <trkpt lat="31.859260" lon="117.145220">
        <ele>36.0</ele>
        <time>2026-06-11T09:06:51.326004Z</time>
      </trkpt>
      <trkpt lat="31.859343" lon="117.145234">
        <ele>36.0</ele>
        <time>2026-06-11T09:06:56.596006Z</time>
      </trkpt>
      <trkpt lat="31.859420" lon="117.145268">
        <ele>36.0</ele>
        <time>2026-06-11T09:07:01.905788Z</time>
      </trkpt>
      <trkpt lat="31.859505" lon="117.145266">
        <ele>36.0</ele>
        <time>2026-06-11T09:07:07.357808Z</time>
      </trkpt>
      <trkpt lat="31.859540" lon="117.145280">
        <ele>36.0</ele>
        <time>2026-06-11T09:07:09.777965Z</time>
      </trkpt>
      <trkpt lat="31.859615" lon="117.145320">
        <ele>36.0</ele>
        <time>2026-06-11T09:07:15.160776Z</time>
      </trkpt>
      <trkpt lat="31.859701" lon="117.145326">
        <ele>36.0</ele>
        <time>2026-06-11T09:07:20.433054Z</time>
      </trkpt>
      <trkpt lat="31.859777" lon="117.145359">
        <ele>36.0</ele>
        <time>2026-06-11T09:07:25.840061Z</time>
      </trkpt>
      <trkpt lat="31.859857" lon="117.145392">
        <ele>36.0</ele>
        <time>2026-06-11T09:07:31.168830Z</time>
      </trkpt>
      <trkpt lat="31.859860" lon="117.145400">
        <ele>36.0</ele>
        <time>2026-06-11T09:07:31.530400Z</time>
      </trkpt>
      <trkpt lat="31.859866" lon="117.145395">
        <ele>36.0</ele>
        <time>2026-06-11T09:07:32.530400Z</time>
      </trkpt>
      <trkpt lat="31.859856" lon="117.145394">
        <ele>36.0</ele>
        <time>2026-06-11T09:07:33.530400Z</time>
      </trkpt>
      <trkpt lat="31.859857" lon="117.145393">
        <ele>36.0</ele>
        <time>2026-06-11T09:07:34.530400Z</time>
      </trkpt>
      <trkpt lat="31.859912" lon="117.145473">
        <ele>36.0</ele>
        <time>2026-06-11T09:07:39.804471Z</time>
      </trkpt>
      <trkpt lat="31.859975" lon="117.145540">
        <ele>36.0</ele>
        <time>2026-06-11T09:07:45.177025Z</time>
      </trkpt>
      <trkpt lat="31.860041" lon="117.145597">
        <ele>36.0</ele>
        <time>2026-06-11T09:07:50.654103Z</time>
      </trkpt>
      <trkpt lat="31.860098" lon="117.145673">
        <ele>36.0</ele>
        <time>2026-06-11T09:07:56.109812Z</time>
      </trkpt>
      <trkpt lat="31.860120" lon="117.145700">
        <ele>36.0</ele>
        <time>2026-06-11T09:07:58.273408Z</time>
      </trkpt>
      <trkpt lat="31.860167" lon="117.145782">
        <ele>36.0</ele>
        <time>2026-06-11T09:08:03.692766Z</time>
      </trkpt>
      <trkpt lat="31.860204" lon="117.145869">
        <ele>36.0</ele>
        <time>2026-06-11T09:08:09.029485Z</time>
      </trkpt>
      <trkpt lat="31.860253" lon="117.145944">
        <ele>36.0</ele>
        <time>2026-06-11T09:08:14.488916Z</time>
      </trkpt>
      <trkpt lat="31.860303" lon="117.146025">
        <ele>36.0</ele>
        <time>2026-06-11T09:08:19.949871Z</time>
      </trkpt>
      <trkpt lat="31.860336" lon="117.146114">
        <ele>36.0</ele>
        <time>2026-06-11T09:08:25.302045Z</time>
      </trkpt>
      <trkpt lat="31.860360" lon="117.146150">
        <ele>36.0</ele>
        <time>2026-06-11T09:08:27.807812Z</time>
      </trkpt>
    </trkseg>
  </trk>
</gpx>
