<?xml version="1.0" encoding="UTF-8"?>
<gpx version="1.1" creator="Codex" xmlns="http://www.topografix.com/GPX/1/1">
  <metadata>
    <name>San Jose Highway Walk</name>
    <desc>Walking-speed test route near CA-87 and W Taylor St in San Jose, California.</desc>
    <time>2026-06-10T02:00:00Z</time>
  </metadata>
  <trk>
    <name>San Jose Highway Walk</name>
    <trkseg>
      <trkpt lat="37.341820" lon="-121.902540">
        <ele>24.0</ele>
        <time>2026-06-10T02:00:00Z</time>
      </trkpt>
      <trkpt lat="37.341910" lon="-121.902410">
        <ele>24.0</ele>
        <time>2026-06-10T02:00:12Z</time>
      </trkpt>
      <trkpt lat="37.342000" lon="-121.902280">
        <ele>24.0</ele>
        <time>2026-06-10T02:00:24Z</time>
      </trkpt>
      <trkpt lat="37.342090" lon="-121.902150">
        <ele>24.0</ele>
        <time>2026-06-10T02:00:36Z</time>
      </trkpt>
      <trkpt lat="37.342180" lon="-121.902020">
        <ele>24.0</ele>
        <time>2026-06-10T02:00:48Z</time>
      </trkpt>
      <trkpt lat="37.342270" lon="-121.901890">
        <ele>24.0</ele>
        <time>2026-06-10T02:01:00Z</time>
      </trkpt>
      <trkpt lat="37.342360" lon="-121.901760">
        <ele>24.0</ele>
        <time>2026-06-10T02:01:12Z</time>
      </trkpt>
      <trkpt lat="37.342450" lon="-121.901630">
        <ele>24.0</ele>
        <time>2026-06-10T02:01:24Z</time>
      </trkpt>
      <trkpt lat="37.342540" lon="-121.901500">
        <ele>24.0</ele>
        <time>2026-06-10T02:01:36Z</time>
      </trkpt>
      <trkpt lat="37.342630" lon="-121.901370">
        <ele>24.0</ele>
        <time>2026-06-10T02:01:48Z</time>
      </trkpt>
      <trkpt lat="37.342720" lon="-121.901240">
        <ele>24.0</ele>
        <time>2026-06-10T02:02:00Z</time>
      </trkpt>
      <trkpt lat="37.342810" lon="-121.901110">
        <ele>24.0</ele>
        <time>2026-06-10T02:02:12Z</time>
      </trkpt>
      <trkpt lat="37.342900" lon="-121.900980">
        <ele>24.0</ele>
        <time>2026-06-10T02:02:24Z</time>
      </trkpt>
      <trkpt lat="37.342990" lon="-121.900850">
        <ele>24.0</ele>
        <time>2026-06-10T02:02:36Z</time>
      </trkpt>
      <trkpt lat="37.343080" lon="-121.900720">
        <ele>24.0</ele>
        <time>2026-06-10T02:02:48Z</time>
      </trkpt>
      <trkpt lat="37.343170" lon="-121.900590">
        <ele>24.0</ele>
        <time>2026-06-10T02:03:00Z</time>
      </trkpt>
    </trkseg>
  </trk>
</gpx>
